{"type": "FeatureCollection", "features": [ {"type": "Feature", "properties": {"norad_id": 61182, "name": "GSAT0232 (GALILEO 32)", "group": "gnss", "lat": 2.8663558442132517, "lon": 44.22153118435262, "alt_km": 23217.311085271453, "timestamp": "2025-12-21T05:44:51.830905+00:00", "meta": {"OBJECT_NAME": "GSAT0232 (GALILEO 32)", "OBJECT_ID": "2024-167A", "EPOCH": "2025-12-20T01:45:16.724736", "MEAN_MOTION": 1.70473657, "ECCENTRICITY": 0.00018786, "INCLINATION": 55.2386, "RA_OF_ASC_NODE": 226.2297, "ARG_OF_PERICENTER": 206.8342, "MEAN_ANOMALY": 333.9154, "EPHEMERIS_TYPE": 0, "CLASSIFICATION_TYPE": "U", "NORAD_CAT_ID": 61182, "ELEMENT_SET_NO": 999, "REV_AT_EPOCH": 782, "BSTAR": 0, "MEAN_MOTION_DOT": 7e-07, "MEAN_MOTION_DDOT": 0}, "tle": {"line1": "1 61182U 24167A   25354.07311024  .00000070  00000+0  00000+0 0  9990", "line2": "2 61182  55.2386 226.2297 0001878 206.8342 333.9154  1.70473657  7823"}}, "geometry": {"type": "Point", "coordinates": [44.22153118435262, 2.8663558442132517]}}, {"type": "Feature", "properties": {"norad_id": 61183, "name": "GSAT0226 (GALILEO 31)", "group": "gnss", "lat": -50.89677720365082, "lon": 167.55678786171524, "alt_km": 23231.143171594136, "timestamp": "2025-12-21T05:44:51.830920+00:00", "meta": {"OBJECT_NAME": "GSAT0226 (GALILEO 31)", "OBJECT_ID": "2024-167B", "EPOCH": "2025-12-20T15:24:14.830848", "MEAN_MOTION": 1.70473754, "ECCENTRICITY": 0.000112, "INCLINATION": 55.2371, "RA_OF_ASC_NODE": 226.2196, "ARG_OF_PERICENTER": 107.1344, "MEAN_ANOMALY": 175.3163, "EPHEMERIS_TYPE": 0, "CLASSIFICATION_TYPE": "U", "NORAD_CAT_ID": 61183, "ELEMENT_SET_NO": 999, "REV_AT_EPOCH": 780, "BSTAR": 0, "MEAN_MOTION_DOT": 7.2e-07, "MEAN_MOTION_DDOT": 0}, "tle": {"line1": "1 61183U 24167B   25354.64183832  .00000072  00000+0  00000+0 0  9990", "line2": "2 61183  55.2371 226.2196 0001120 107.1344 175.3163  1.70473754  7805"}}, "geometry": {"type": "Point", "coordinates": [167.55678786171524, -50.89677720365082]}}, {"type": "Feature", "properties": {"norad_id": 61186, "name": "BEIDOU-3 M25 (C47)", "group": "gnss", "lat": 26.774634522510546, "lon": -30.619487957807923, "alt_km": 21525.890372042766, "timestamp": "2025-12-21T05:44:51.830931+00:00", "meta": {"OBJECT_NAME": "BEIDOU-3 M25 (C47)", "OBJECT_ID": "2024-168B", "EPOCH": "2025-12-20T22:07:53.377248", "MEAN_MOTION": 1.86230245, "ECCENTRICITY": 0.00054545, "INCLINATION": 54.6348, "RA_OF_ASC_NODE": 308.4372, "ARG_OF_PERICENTER": 299.6064, "MEAN_ANOMALY": 241.0883, "EPHEMERIS_TYPE": 0, "CLASSIFICATION_TYPE": "U", "NORAD_CAT_ID": 61186, "ELEMENT_SET_NO": 999, "REV_AT_EPOCH": 846, "BSTAR": 0, "MEAN_MOTION_DOT": -6.6e-07, "MEAN_MOTION_DDOT": 0}, "tle": {"line1": "1 61186U 24168B   25354.92214557 -.00000066  00000+0  00000+0 0  9998", "line2": "2 61186  54.6348 308.4372 0005454 299.6064 241.0883  1.86230245  8460"}}, "geometry": {"type": "Point", "coordinates": [-30.619487957807923, 26.774634522510546]}}, {"type": "Feature", "properties": {"norad_id": 61187, "name": "BEIDOU-3 M27 (C49)", "group": "gnss", "lat": 9.394798461297288, "lon": 121.6438222995759, "alt_km": 21534.119189441393, "timestamp": "2025-12-21T05:44:51.830941+00:00", "meta": {"OBJECT_NAME": "BEIDOU-3 M27 (C49)", "OBJECT_ID": "2024-168C", "EPOCH": "2025-12-20T17:20:25.638144", "MEAN_MOTION": 1.86230401, "ECCENTRICITY": 0.00025275, "INCLINATION": 54.6304, "RA_OF_ASC_NODE": 308.4277, "ARG_OF_PERICENTER": 339.9286, "MEAN_ANOMALY": 201.8737, "EPHEMERIS_TYPE": 0, "CLASSIFICATION_TYPE": "U", "NORAD_CAT_ID": 61187, "ELEMENT_SET_NO": 999, "REV_AT_EPOCH": 593, "BSTAR": 0, "MEAN_MOTION_DOT": -6.7e-07, "MEAN_MOTION_DDOT": 0}, "tle": {"line1": "1 61187U 24168C   25354.72251896 -.00000067  00000+0  00000+0 0  9995", "line2": "2 61187  54.6304 308.4277 0002527 339.9286 201.8737  1.86230401  5934"}}, "geometry": {"type": "Point", "coordinates": [121.6438222995759, 9.394798461297288]}}, {"type": "Feature", "properties": {"norad_id": 62339, "name": "GPS BIII-7  (PRN 01)", "group": "gnss", "lat": -54.14794295974979, "lon": -95.11443647853368, "alt_km": 20175.029110267144, "timestamp": "2025-12-21T05:44:51.830952+00:00", "meta": {"OBJECT_NAME": "GPS BIII-7  (PRN 01)", "OBJECT_ID": "2024-242A", "EPOCH": "2025-12-18T08:46:28.895808", "MEAN_MOTION": 2.00568182, "ECCENTRICITY": 0.0012509, "INCLINATION": 54.922, "RA_OF_ASC_NODE": 341.5124, "ARG_OF_PERICENTER": 345.6877, "MEAN_ANOMALY": 17.1618, "EPHEMERIS_TYPE": 0, "CLASSIFICATION_TYPE": "U", "NORAD_CAT_ID": 62339, "ELEMENT_SET_NO": 999, "REV_AT_EPOCH": 763, "BSTAR": 0, "MEAN_MOTION_DOT": -8.5e-07, "MEAN_MOTION_DDOT": 0}, "tle": {"line1": "1 62339U 24242A   25352.36561222 -.00000085  00000+0  00000+0 0  9993", "line2": "2 62339  54.9220 341.5124 0012509 345.6877  17.1618  2.00568182  7636"}}, "geometry": {"type": "Point", "coordinates": [-95.11443647853368, -54.14794295974979]}}, {"type": "Feature", "properties": {"norad_id": 62850, "name": "NVS-02 (IRNSS-1K)", "group": "gnss", "lat": -20.916897231955254, "lon": -129.80977972486187, "alt_km": 13997.2285002891, "timestamp": "2025-12-21T05:44:51.830968+00:00", "meta": {"OBJECT_NAME": "NVS-02 (IRNSS-1K)", "OBJECT_ID": "2025-020A", "EPOCH": "2025-12-20T08:38:20.194080", "MEAN_MOTION": 2.17600288, "ECCENTRICITY": 0.7347343, "INCLINATION": 20.9647, "RA_OF_ASC_NODE": 324.9017, "ARG_OF_PERICENTER": 31.1731, "MEAN_ANOMALY": 356.6243, "EPHEMERIS_TYPE": 0, "CLASSIFICATION_TYPE": "U", "NORAD_CAT_ID": 62850, "ELEMENT_SET_NO": 999, "REV_AT_EPOCH": 708, "BSTAR": 0.00012417, "MEAN_MOTION_DOT": 1.29e-06, "MEAN_MOTION_DDOT": 0}, "tle": {"line1": "1 62850U 25020A   25354.35995595  .00000129  00000+0  12417-3 0  9998", "line2": "2 62850  20.9647 324.9017 7347343  31.1731 356.6243  2.17600288  7082"}}, "geometry": {"type": "Point", "coordinates": [-129.80977972486187, -20.916897231955254]}}, {"type": "Feature", "properties": {"norad_id": 62876, "name": "QZS-6 (QZSS/PRN 200)", "group": "gnss", "lat": -0.036444026526280225, "lon": -93.189897437837, "alt_km": 35779.777981272455, "timestamp": "2025-12-21T05:44:51.830981+00:00", "meta": {"OBJECT_NAME": "QZS-6 (QZSS/PRN 200)", "OBJECT_ID": "2025-023A", "EPOCH": "2025-12-20T21:55:38.685216", "MEAN_MOTION": 1.00272257, "ECCENTRICITY": 0.00014984, "INCLINATION": 0.0502, "RA_OF_ASC_NODE": 69.8334, "ARG_OF_PERICENTER": 209.2047, "MEAN_ANOMALY": 230.1578, "EPHEMERIS_TYPE": 0, "CLASSIFICATION_TYPE": "U", "NORAD_CAT_ID": 62876, "ELEMENT_SET_NO": 999, "REV_AT_EPOCH": 317, "BSTAR": 0, "MEAN_MOTION_DOT": -2.1e-06, "MEAN_MOTION_DDOT": 0}, "tle": {"line1": "1 62876U 25023A   25354.91364219 -.00000210  00000+0  00000+0 0  9997", "line2": "2 62876   0.0502  69.8334 0001498 209.2047 230.1578  1.00272257  3170"}}, "geometry": {"type": "Point", "coordinates": [-93.189897437837, -0.036444026526280225]}}, {"type": "Feature", "properties": {"norad_id": 63130, "name": "COSMOS 2584 (704K)", "group": "gnss", "lat": -35.63275226558956, "lon": 59.34760304321023, "alt_km": 19138.348124183492, "timestamp": "2025-12-21T05:44:51.830992+00:00", "meta": {"OBJECT_NAME": "COSMOS 2584 (704K)", "OBJECT_ID": "2025-042A", "EPOCH": "2025-12-18T11:25:35.911776", "MEAN_MOTION": 2.13103072, "ECCENTRICITY": 0.00077091, "INCLINATION": 64.979, "RA_OF_ASC_NODE": 78.9506, "ARG_OF_PERICENTER": 218.5301, "MEAN_ANOMALY": 141.4378, "EPHEMERIS_TYPE": 0, "CLASSIFICATION_TYPE": "U", "NORAD_CAT_ID": 63130, "ELEMENT_SET_NO": 999, "REV_AT_EPOCH": 619, "BSTAR": 0, "MEAN_MOTION_DOT": -3.8e-07, "MEAN_MOTION_DDOT": 0}, "tle": {"line1": "1 63130U 25042A   25352.47611009 -.00000038  00000+0  00000+0 0  9991", "line2": "2 63130  64.9790  78.9506 0007709 218.5301 141.4378  2.13103072  6191"}}, "geometry": {"type": "Point", "coordinates": [59.34760304321023, -35.63275226558956]}}, {"type": "Feature", "properties": {"norad_id": 64202, "name": "GPS BIII-8  (PRN 21)", "group": "gnss", "lat": 51.6065597278498, "lon": 156.67597173100512, "alt_km": 20190.647231466974, "timestamp": "2025-12-21T05:44:51.831003+00:00", "meta": {"OBJECT_NAME": "GPS BIII-8  (PRN 21)", "OBJECT_ID": "2025-116A", "EPOCH": "2025-12-20T02:23:29.620896", "MEAN_MOTION": 2.00557984, "ECCENTRICITY": 0.00057225, "INCLINATION": 55.1107, "RA_OF_ASC_NODE": 38.344, "ARG_OF_PERICENTER": 309.6695, "MEAN_ANOMALY": 54.4969, "EPHEMERIS_TYPE": 0, "CLASSIFICATION_TYPE": "U", "NORAD_CAT_ID": 64202, "ELEMENT_SET_NO": 999, "REV_AT_EPOCH": 428, "BSTAR": 0, "MEAN_MOTION_DOT": -6.1e-07, "MEAN_MOTION_DDOT": 0}, "tle": {"line1": "1 64202U 25116A   25354.09964839 -.00000061  00000+0  00000+0 0  9992", "line2": "2 64202  55.1107  38.3440 0005722 309.6695  54.4969  2.00557984  4282"}}, "geometry": {"type": "Point", "coordinates": [156.67597173100512, 51.6065597278498]}}, {"type": "Feature", "properties": {"norad_id": 65590, "name": "COSMOS 2596 (708K)", "group": "gnss", "lat": 62.39769951681984, "lon": 25.66443515102923, "alt_km": 19147.054581683933, "timestamp": "2025-12-21T05:44:51.831014+00:00", "meta": {"OBJECT_NAME": "COSMOS 2596 (708K)", "OBJECT_ID": "2025-206B", "EPOCH": "2025-12-20T10:17:47.285664", "MEAN_MOTION": 2.13100474, "ECCENTRICITY": 0.001407, "INCLINATION": 64.7402, "RA_OF_ASC_NODE": 321.2078, "ARG_OF_PERICENTER": 307.0541, "MEAN_ANOMALY": 229.5313, "EPHEMERIS_TYPE": 0, "CLASSIFICATION_TYPE": "U", "NORAD_CAT_ID": 65590, "ELEMENT_SET_NO": 999, "REV_AT_EPOCH": 210, "BSTAR": 0, "MEAN_MOTION_DOT": -5.3e-07, "MEAN_MOTION_DDOT": 0}, "tle": {"line1": "1 65590U 25206B   25354.42901951 -.00000053  00000+0  00000+0 0  9997", "line2": "2 65590  64.7402 321.2078 0014070 307.0541 229.5313  2.13100474  2105"}}, "geometry": {"type": "Point", "coordinates": [25.66443515102923, 62.39769951681984]}}]}